STARLINK-30791          
1 58177U 23167C   26067.59888936 -.00001971  00000+0 -63840-4 0  9998
2 58177  42.9987 149.0936 0001321 264.8741  95.1960 15.26736371130825
PELICAN-6               
1 66703U 25276AP  26068.70709364  .00077979  00000+0  29726-2 0  9998
2 66703  97.4276 144.2072 0003569 157.8575 202.2819 15.26377980 15334
